{"RECORDS":[{"CCSDS_OMM_VERS":9683.4,"CREATION_DATE":"2090-11-22T09:14:57.075Z","ORIGINATOR":"Emmerich - Greenholt","OBJECT_NAME":"\\[{Pv>->s<","OBJECT_ID":",wH;:Tl{)(","CENTER_NAME":"_Dw\\qgI_j_","REF_FRAME":8,"REF_FRAME_EPOCH":"2060-05-06T08:22:31.400Z","TIME_SYSTEM":5,"MEAN_ELEMENT_THEORY":2,"COMMENT":":ySjjFON+q","EPOCH":"2006-02-02T23:53:00.378Z","SEMI_MAJOR_AXIS":45673.16,"MEAN_MOTION":52902.63,"ECCENTRICITY":68069.33,"INCLINATION":18629.22,"RA_OF_ASC_NODE":3971.61,"ARG_OF_PERICENTER":8433.49,"MEAN_ANOMALY":64390.95,"GM":3558.7,"MASS":66524.96,"SOLAR_RAD_AREA":41559.05,"SOLAR_RAD_COEFF":15977.88,"DRAG_AREA":9564.25,"DRAG_COEFF":20977.76,"EPHEMERIS_TYPE":3,"CLASSIFICATION_TYPE":"I9\"U2K!id{","NORAD_CAT_ID":603385215,"ELEMENT_SET_NO":3484642779,"REV_AT_EPOCH":42755.09,"BSTAR":1860.53,"MEAN_MOTION_DOT":94457.73,"MEAN_MOTION_DDOT":14432.83,"COV_REF_FRAME":1,"CX_X":26227.35,"CY_X":58475.87,"CY_Y":19379.14,"CZ_X":20917.18,"CZ_Y":15297.29,"CZ_Z":57181.57,"CX_DOT_X":94671.62,"CX_DOT_Y":50401.15,"CX_DOT_Z":51652.66,"CX_DOT_X_DOT":9997.06,"CY_DOT_X":38076.71,"CY_DOT_Y":59269.51,"CY_DOT_Z":49260.43,"CY_DOT_X_DOT":85548.09,"CY_DOT_Y_DOT":49377.89,"CZ_DOT_X":63440.29,"CZ_DOT_Y":64710.41,"CZ_DOT_Z":68119.71,"CZ_DOT_X_DOT":88330.41,"CZ_DOT_Y_DOT":79604.16,"CZ_DOT_Z_DOT":90191.56,"USER_DEFINED_BIP_0044_TYPE":1615597445,"USER_DEFINED_OBJECT_DESIGNATOR":"CGD]ZK(vDK","USER_DEFINED_EARTH_MODEL":"jge7QUxghZ","USER_DEFINED_EPOCH_TIMESTAMP":61120.24,"USER_DEFINED_MICROSECONDS":53739.88}]}